CCSDS_OMM_VERS,COMMENT,CREATION_DATE,ORIGINATOR,OBJECT_NAME,OBJECT_ID,CENTER_NAME,REF_FRAME,TIME_SYSTEM,MEAN_ELEMENT_THEORY,EPOCH,MEAN_MOTION,ECCENTRICITY,INCLINATION,RA_OF_ASC_NODE,ARG_OF_PERICENTER,MEAN_ANOMALY,EPHEMERIS_TYPE,CLASSIFICATION_TYPE,NORAD_CAT_ID,ELEMENT_SET_NO,REV_AT_EPOCH,BSTAR,MEAN_MOTION_DOT,MEAN_MOTION_DDOT,SEMIMAJOR_AXIS,PERIOD,APOAPSIS,PERIAPSIS,OBJECT_TYPE,RCS_SIZE,COUNTRY_CODE,LAUNCH_DATE,SITE,DECAY_DATE,FILE,GP_ID,TLE_LINE0,TLE_LINE1,TLE_LINE2
"2.0","GENERATED VIA SPACE-TRACK.ORG API","2023-01-02T02:38:49","18 SPCS","COSMOS 1317","1981-108A","EARTH","TEME","UTC","SGP4","2023-01-01T17:22:03.759168","2.00208739","0.52866900","71.5749","159.6306","358.1763","179.6323","0","U","12933","999","30098","0.00000000000000","0.00000178","0.0000000000000","26591.724","719.249","34271.809","6155.369","PAYLOAD","LARGE","CIS","1981-10-31","PKMTR","","3728952","221969268","0 COSMOS 1317","1 12933U 81108A   23001.72365462  .00000178  00000-0  00000-0 0  9993","2 12933  71.5749 159.6306 5286690 358.1763 179.6323  2.00208739300984"
"2.0","GENERATED VIA SPACE-TRACK.ORG API","2023-01-01T14:46:13","18 SPCS","COSMOS 1317","1981-108A","EARTH","TEME","UTC","SGP4","2023-01-01T11:33:57.364416","2.00208678","0.52867570","71.5751","159.6404","358.1831","5.3986","0","U","12933","999","30097","0.00000000000000","0.00000181","0.0000000000000","26591.729","719.250","34271.995","6155.193","PAYLOAD","LARGE","CIS","1981-10-31","PKMTR","","3728530","221904132","0 COSMOS 1317","1 12933U 81108A   23001.48191394  .00000181  00000-0  00000+0 0  9990","2 12933  71.5751 159.6404 5286757 358.1831   5.3986  2.00208678300977"
"2.0","GENERATED VIA SPACE-TRACK.ORG API","2023-01-02T02:38:49","18 SPCS","SL-6 R/B(2)","1981-108D","EARTH","TEME","UTC","SGP4","2023-01-01T11:35:28.878432","1.99089892","0.63438710","67.8357","349.8480","8.1482","358.5260","0","U","12940","999","29940","0.00000000000000","0.00000190","0.0000000000000","26691.257","723.291","37245.712","3380.533","ROCKET BODY","LARGE","CIS","1981-10-31","PKMTR","","3728952","221970519","0 SL-6 R/B(2)","1 12940U 81108D   23001.48297313  .00000190  00000-0  00000-0 0  9997","2 12940  67.8357 349.8480 6343871   8.1482 358.5260  1.99089892299403"
"2.0","GENERATED VIA SPACE-TRACK.ORG API","2023-01-02T17:42:09","18 SPCS","SL-6 R/B(2)","1981-108D","EARTH","TEME","UTC","SGP4","2023-01-01T23:38:46.636800","1.99089840","0.63439750","67.8349","349.8120","8.1366","358.5244","0","U","12940","999","29941","0.00000000000000","0.00000222","0.0000000000000","26691.262","723.292","37245.997","3380.257","ROCKET BODY","LARGE","CIS","1981-10-31","PKMTR","","3729583","222012310","0 SL-6 R/B(2)","1 12940U 81108D   23001.98526200  .00000222  00000-0  00000-0 0  9998","2 12940  67.8349 349.8120 6343975   8.1366 358.5244  1.99089840299417"
"2.0","GENERATED VIA SPACE-TRACK.ORG API","2023-01-02T17:42:09","18 SPCS","COSMOS 1247 DEB","1981-016F","EARTH","TEME","UTC","SGP4","2023-01-02T07:06:34.710912","2.02681193","0.65432510","66.9252","98.7972","11.9259","358.0467","0","U","12984","999","30439","0.00000000000000","-0.00000621","0.0000000000000","26375.025","710.475","37254.730","2739.049","DEBRIS","LARGE","CIS","1981-02-19","PKMTR","","3729583","222011813","0 COSMOS 1247 DEB","1 12984U 81016F   23002.29623508 -.00000621  00000-0  00000-0 0  9992","2 12984  66.9252  98.7972 6543251  11.9259 358.0467  2.02681193304395"
"2.0","GENERATED VIA SPACE-TRACK.ORG API","2023-01-02T14:46:14","18 SPCS","COSMOS 1247 DEB","1981-016F","EARTH","TEME","UTC","SGP4","2023-01-02T07:06:34.710912","2.02681193","0.65432510","66.9252","98.7972","11.9259","358.0467","0","U","12984","999","30437","0.00000000000000","-0.00000621","0.0000000000000","26375.025","710.475","37254.730","2739.049","DEBRIS","LARGE","CIS","1981-02-19","PKMTR","","3729374","222003126","0 COSMOS 1247 DEB","1 12984U 81016F   23002.29623508 -.00000621  00000-0  00000+0 0  9991","2 12984  66.9252  98.7972 6543251  11.9259 358.0467  2.02681193304373"
"2.0","GENERATED VIA SPACE-TRACK.ORG API","2023-01-01T17:55:23","18 SPCS","COSMOS 1285 DEB","1981-071E","EARTH","TEME","UTC","SGP4","2023-01-01T12:23:44.407680","1.97853069","0.64183450","66.7208","183.2064","30.1393","359.1715","0","U","12993","999","21322","0.00000000000000","0.00000602","0.0000000000000","26802.377","727.813","37626.932","3221.552","DEBRIS","LARGE","CIS","1981-08-04","PKMTR","","3728759","221912661","0 COSMOS 1285 DEB","1 12993U 81071E   23001.51648620  .00000602  00000-0  00000-0 0  9997","2 12993  66.7208 183.2064 6418345  30.1393 359.1715  1.97853069213228"
"2.0","GENERATED VIA SPACE-TRACK.ORG API","2023-01-01T14:36:13","18 SPCS","COSMOS 1285 DEB","1981-071E","EARTH","TEME","UTC","SGP4","2023-01-01T12:23:44.407680","1.97853069","0.64183450","66.7208","183.2064","30.1393","359.1715","0","U","12993","999","21321","0.00000000000000","0.00000602","0.0000000000000","26802.377","727.813","37626.932","3221.552","DEBRIS","LARGE","CIS","1981-08-04","PKMTR","","3728496","221903066","0 COSMOS 1285 DEB","1 12993U 81071E   23001.51648620  .00000602  00000-0  00000+0 0  9996","2 12993  66.7208 183.2064 6418345  30.1393 359.1715  1.97853069213217"
"2.0","GENERATED VIA SPACE-TRACK.ORG API","2023-01-02T17:42:09","18 SPCS","COSMOS 1285 DEB","1981-071E","EARTH","TEME","UTC","SGP4","2023-01-02T12:40:55.236576","1.97853171","0.64189870","66.7211","183.1306","30.1205","359.9392","0","U","12993","999","21324","0.00000000000000","0.00000702","0.0000000000000","26802.368","727.812","37628.638","3219.828","DEBRIS","LARGE","CIS","1981-08-04","PKMTR","","3729583","222012313","0 COSMOS 1285 DEB","1 12993U 81071E   23002.52841709  .00000702  00000-0  00000-0 0  9993","2 12993  66.7211 183.1306 6418987  30.1205 359.9392  1.97853171213249"
"2.0","GENERATED VIA SPACE-TRACK.ORG API","2023-01-02T14:46:14","18 SPCS","COSMOS 1285 DEB","1981-071E","EARTH","TEME","UTC","SGP4","2023-01-02T12:40:55.236576","1.97853171","0.64189870","66.7211","183.1306","30.1205","359.9392","0","U","12993","999","21323","0.00000000000000","0.00000702","0.0000000000000","26802.368","727.812","37628.638","3219.828","DEBRIS","LARGE","CIS","1981-08-04","PKMTR","","3729364","222002451","0 COSMOS 1285 DEB","1 12993U 81071E   23002.52841709  .00000702  00000-0  00000+0 0  9992","2 12993  66.7211 183.1306 6418987  30.1205 359.9392  1.97853171213238"
"2.0","GENERATED VIA SPACE-TRACK.ORG API","2023-01-02T17:42:09","18 SPCS","CAT 4","1981-122B","EARTH","TEME","UTC","SGP4","2023-01-02T03:31:37.604928","3.18262441","0.66060880","10.3434","207.0697","218.8410","67.3026","0","U","13011","999","31986","0.00060022000000","0.00003769","0.0000000000000","19522.926","452.457","26041.808","247.774","PAYLOAD","LARGE","ESA","1981-12-20","FRGUI","","3729583","222011815","0 CAT 4","1 13011U 81122B   23002.14696302  .00003769  00000-0  60022-3 0  9996","2 13011  10.3434 207.0697 6606088 218.8410  67.3026  3.18262441319864"
"2.0","GENERATED VIA SPACE-TRACK.ORG API","2023-01-01T17:55:23","18 SPCS","CAT 4","1981-122B","EARTH","TEME","UTC","SGP4","2023-01-01T04:56:51.464544","3.18255871","0.66061340","10.3444","207.6562","217.7024","69.3879","0","U","13011","999","31983","0.00059959000000","0.00003737","0.0000000000000","19523.195","452.466","26042.344","247.776","PAYLOAD","LARGE","ESA","1981-12-20","FRGUI","","3728759","221912162","0 CAT 4","1 13011U 81122B   23001.20615121  .00003737  00000-0  59959-3 0  9994","2 13011  10.3444 207.6562 6606134 217.7024  69.3879  3.18255871319837"
"2.0","GENERATED VIA SPACE-TRACK.ORG API","2023-01-02T02:38:49","18 SPCS","CAT 4","1981-122B","EARTH","TEME","UTC","SGP4","2023-01-01T20:00:01.770912","3.18260152","0.66061370","10.3436","207.2650","218.4618","67.9893","0","U","13011","999","31985","0.00058644000000","0.00003676","0.0000000000000","19523.020","452.460","26042.059","247.710","PAYLOAD","LARGE","ESA","1981-12-20","FRGUI","","3728952","221970024","0 CAT 4","1 13011U 81122B   23001.83335383  .00003676  00000-0  58644-3 0  9994","2 13011  10.3436 207.2650 6606137 218.4618  67.9893  3.18260152319852"
"2.0","GENERATED VIA SPACE-TRACK.ORG API","2023-01-03T02:40:54","18 SPCS","CAT 4","1981-122B","EARTH","TEME","UTC","SGP4","2023-01-02T11:03:13.699008","3.18264450","0.66060730","10.3433","206.8744","219.2201","66.6219","0","U","13011","999","31987","0.00055128000000","0.00003467","0.0000000000000","19522.844","452.454","26041.643","247.776","PAYLOAD","LARGE","ESA","1981-12-20","FRGUI","","3729873","222043867","0 CAT 4","1 13011U 81122B   23002.46057522  .00003467  00000-0  55128-3 0  9992","2 13011  10.3433 206.8744 6606073 219.2201  66.6219  3.18264450319879"
"2.0","GENERATED VIA SPACE-TRACK.ORG API","2023-01-03T07:16:20","18 SPCS","SL-6 R/B(2)","1981-123D","EARTH","TEME","UTC","SGP4","2023-01-02T21:08:22.324416","2.40282822","0.70909980","62.2465","250.7871","269.5847","16.4562","0","U","13016","999","33004","0.00025639000000","0.00000275","0.0000000000000","23546.156","599.294","33864.596","471.447","ROCKET BODY","LARGE","CIS","1981-12-23","TTMTR","","3730095","222071811","0 SL-6 R/B(2)","1 13016U 81123D   23002.88081394  .00000275  00000-0  25639-3 0  9996","2 13016  62.2465 250.7871 7090998 269.5847  16.4562  2.40282822330045"
"2.0","GENERATED VIA SPACE-TRACK.ORG API","2023-01-01T17:55:23","18 SPCS","SL-6 R/B(2)","1981-123D","EARTH","TEME","UTC","SGP4","2023-01-01T05:11:12.806016","2.40282685","0.70916450","62.2466","251.1145","269.5591","16.4519","0","U","13016","999","33001","0.00022935000000","0.00000228","0.0000000000000","23546.165","599.294","33866.135","469.926","ROCKET BODY","LARGE","CIS","1981-12-23","TTMTR","","3728759","221913651","0 SL-6 R/B(2)","1 13016U 81123D   23001.21612044  .00000228  00000-0  22935-3 0  9998","2 13016  62.2466 251.1145 7091645 269.5591  16.4519  2.40282685330017"
